{
  "norad_id": 58480,
  "name": "STARLINK-30984",
  "history": [
    {
      "epoch": "2026-03-28T22:25:18.206400Z",
      "apogee_km": 483.92379616133803,
      "perigee_km": 482.1330319882636,
      "latitude_deg": -1.3663547623996332e-05,
      "longitude_deg": 151.92406200577136,
      "height_km": 482.6956170663763,
      "semi_major_axis_km": 6861.1654140748005,
      "eccentricity": 0.0001305,
      "inclination_deg": 43.0024,
      "raan_deg": 314.5975,
      "arg_perigee_deg": 277.0371,
      "mean_anomaly_deg": 83.0332,
      "mean_motion_rev_day": 15.27586907
    }
  ]
}